{"type": "FeatureCollection", "features": [ {"type": "Feature", "properties": {"norad_id": 38801, "name": "FENGYUN 1C DEB", "group": "fengyun-1c-debris", "lat": 32.24560263945675, "lon": 37.6523588151117, "alt_km": 668.9890484821235, "timestamp": "2025-12-18T14:52:08.315689+00:00", "meta": {"OBJECT_NAME": "FENGYUN 1C DEB", "OBJECT_ID": "1999-025EUR", "EPOCH": "2025-12-14T23:38:20.156064", "MEAN_MOTION": 14.2482334, "ECCENTRICITY": 0.03468339, "INCLINATION": 98.3742, "RA_OF_ASC_NODE": 39.5088, "ARG_OF_PERICENTER": 345.3815, "MEAN_ANOMALY": 131.5103, "EPHEMERIS_TYPE": 0, "CLASSIFICATION_TYPE": "U", "NORAD_CAT_ID": 38801, "ELEMENT_SET_NO": 999, "REV_AT_EPOCH": 64392, "BSTAR": 0.00040763026, "MEAN_MOTION_DOT": 1.732e-05, "MEAN_MOTION_DDOT": 0}, "tle": {"line1": "1 38801U 99025EUR 25348.98495551  .00001732  00000+0  40763-3 0  9998", "line2": "2 38801  98.3742  39.5088 0346833 345.3815 131.5103 14.24823340643923"}}, "geometry": {"type": "Point", "coordinates": [37.6523588151117, 32.24560263945675]}}, {"type": "Feature", "properties": {"norad_id": 38803, "name": "FENGYUN 1C DEB", "group": "fengyun-1c-debris", "lat": -53.989830952731346, "lon": 163.89173467991344, "alt_km": 857.1611792241965, "timestamp": "2025-12-18T14:52:08.315699+00:00", "meta": {"OBJECT_NAME": "FENGYUN 1C DEB", "OBJECT_ID": "1999-025EUT", "EPOCH": "2025-12-11T23:13:14.211840", "MEAN_MOTION": 14.23655987, "ECCENTRICITY": 0.006424, "INCLINATION": 99.1403, "RA_OF_ASC_NODE": 349.7804, "ARG_OF_PERICENTER": 38.5359, "MEAN_ANOMALY": 322.0379, "EPHEMERIS_TYPE": 0, "CLASSIFICATION_TYPE": "U", "NORAD_CAT_ID": 38803, "ELEMENT_SET_NO": 999, "REV_AT_EPOCH": 60201, "BSTAR": 0.003165, "MEAN_MOTION_DOT": 7.334e-05, "MEAN_MOTION_DDOT": 0}, "tle": {"line1": "1 38803U 99025EUT 25345.96752560  .00007334  00000+0  31650-2 0  9999", "line2": "2 38803  99.1403 349.7804 0064240  38.5359 322.0379 14.23655987602019"}}, "geometry": {"type": "Point", "coordinates": [163.89173467991344, -53.989830952731346]}}, {"type": "Feature", "properties": {"norad_id": 38809, "name": "FENGYUN 1C DEB", "group": "fengyun-1c-debris", "lat": 70.50566476736209, "lon": -22.667622849152114, "alt_km": 905.7737771528227, "timestamp": "2025-12-18T14:52:08.315709+00:00", "meta": {"OBJECT_NAME": "FENGYUN 1C DEB", "OBJECT_ID": "1999-025EUZ", "EPOCH": "2025-12-17T06:21:31.292064", "MEAN_MOTION": 14.1818546, "ECCENTRICITY": 0.02227724, "INCLINATION": 98.5889, "RA_OF_ASC_NODE": 1.2928, "ARG_OF_PERICENTER": 314.9408, "MEAN_ANOMALY": 43.3884, "EPHEMERIS_TYPE": 0, "CLASSIFICATION_TYPE": "U", "NORAD_CAT_ID": 38809, "ELEMENT_SET_NO": 999, "REV_AT_EPOCH": 69270, "BSTAR": 0.0004339011, "MEAN_MOTION_DOT": 1.092e-05, "MEAN_MOTION_DDOT": 0}, "tle": {"line1": "1 38809U 99025EUZ 25351.26494551  .00001092  00000+0  43390-3 0  9998", "line2": "2 38809  98.5889   1.2928 0222772 314.9408  43.3884 14.18185460692702"}}, "geometry": {"type": "Point", "coordinates": [-22.667622849152114, 70.50566476736209]}}, {"type": "Feature", "properties": {"norad_id": 38813, "name": "FENGYUN 1C DEB", "group": "fengyun-1c-debris", "lat": -35.20653592128621, "lon": 163.4377210736053, "alt_km": 833.1149493376033, "timestamp": "2025-12-18T14:52:08.315719+00:00", "meta": {"OBJECT_NAME": "FENGYUN 1C DEB", "OBJECT_ID": "1999-025EVD", "EPOCH": "2025-12-16T17:53:41.226720", "MEAN_MOTION": 14.20173865, "ECCENTRICITY": 0.00065742, "INCLINATION": 99.3457, "RA_OF_ASC_NODE": 348.1323, "ARG_OF_PERICENTER": 103.641, "MEAN_ANOMALY": 256.5497, "EPHEMERIS_TYPE": 0, "CLASSIFICATION_TYPE": "U", "NORAD_CAT_ID": 38813, "ELEMENT_SET_NO": 999, "REV_AT_EPOCH": 48307, "BSTAR": 0.00049318578, "MEAN_MOTION_DOT": 1.004e-05, "MEAN_MOTION_DDOT": 0}, "tle": {"line1": "1 38813U 99025EVD 25350.74561605  .00001004  00000+0  49319-3 0  9990", "line2": "2 38813  99.3457 348.1323 0006574 103.6410 256.5497 14.20173865483070"}}, "geometry": {"type": "Point", "coordinates": [163.4377210736053, -35.20653592128621]}}, {"type": "Feature", "properties": {"norad_id": 38817, "name": "FENGYUN 1C DEB", "group": "fengyun-1c-debris", "lat": -33.44806230882446, "lon": -132.01923333275684, "alt_km": 946.4633654726058, "timestamp": "2025-12-18T14:52:08.315729+00:00", "meta": {"OBJECT_NAME": "FENGYUN 1C DEB", "OBJECT_ID": "1999-025EVH", "EPOCH": "2025-12-15T21:35:28.563360", "MEAN_MOTION": 13.57702829, "ECCENTRICITY": 0.02914897, "INCLINATION": 98.6005, "RA_OF_ASC_NODE": 219.8586, "ARG_OF_PERICENTER": 36.1735, "MEAN_ANOMALY": 325.8742, "EPHEMERIS_TYPE": 0, "CLASSIFICATION_TYPE": "U", "NORAD_CAT_ID": 38817, "ELEMENT_SET_NO": 999, "REV_AT_EPOCH": 65877, "BSTAR": 0.0018611629, "MEAN_MOTION_DOT": 1.729e-05, "MEAN_MOTION_DDOT": 0}, "tle": {"line1": "1 38817U 99025EVH 25349.89963615  .00001729  00000+0  18612-2 0  9990", "line2": "2 38817  98.6005 219.8586 0291489  36.1735 325.8742 13.57702829658772"}}, "geometry": {"type": "Point", "coordinates": [-132.01923333275684, -33.44806230882446]}}, {"type": "Feature", "properties": {"norad_id": 38818, "name": "FENGYUN 1C DEB", "group": "fengyun-1c-debris", "lat": -0.1574654901402963, "lon": -131.2961049015433, "alt_km": 771.4284454418894, "timestamp": "2025-12-18T14:52:08.315740+00:00", "meta": {"OBJECT_NAME": "FENGYUN 1C DEB", "OBJECT_ID": "1999-025EVJ", "EPOCH": "2025-12-17T22:10:52.629600", "MEAN_MOTION": 14.39500377, "ECCENTRICITY": 0.00884346, "INCLINATION": 98.2993, "RA_OF_ASC_NODE": 48.0535, "ARG_OF_PERICENTER": 84.0679, "MEAN_ANOMALY": 93.7681, "EPHEMERIS_TYPE": 0, "CLASSIFICATION_TYPE": "U", "NORAD_CAT_ID": 38818, "ELEMENT_SET_NO": 999, "REV_AT_EPOCH": 67322, "BSTAR": 0.00032125028, "MEAN_MOTION_DOT": 1.005e-05, "MEAN_MOTION_DDOT": 0}, "tle": {"line1": "1 38818U 99025EVJ 25351.92422025  .00001005  00000+0  32125-3 0  9996", "line2": "2 38818  98.2993  48.0535 0088434  84.0679  93.7681 14.39500377673229"}}, "geometry": {"type": "Point", "coordinates": [-131.2961049015433, -0.1574654901402963]}}, {"type": "Feature", "properties": {"norad_id": 38819, "name": "FENGYUN 1C DEB", "group": "fengyun-1c-debris", "lat": 72.05046183291275, "lon": -42.64186716433628, "alt_km": 833.234479834684, "timestamp": "2025-12-18T14:52:08.315750+00:00", "meta": {"OBJECT_NAME": "FENGYUN 1C DEB", "OBJECT_ID": "1999-025EVK", "EPOCH": "2025-12-17T06:26:43.673856", "MEAN_MOTION": 14.19379843, "ECCENTRICITY": 0.00799544, "INCLINATION": 98.6187, "RA_OF_ASC_NODE": 343.9601, "ARG_OF_PERICENTER": 181.3554, "MEAN_ANOMALY": 194.4657, "EPHEMERIS_TYPE": 0, "CLASSIFICATION_TYPE": "U", "NORAD_CAT_ID": 38819, "ELEMENT_SET_NO": 999, "REV_AT_EPOCH": 63542, "BSTAR": 0.00035586631, "MEAN_MOTION_DOT": 7.3e-06, "MEAN_MOTION_DDOT": 0}, "tle": {"line1": "1 38819U 99025EVK 25351.26856104  .00000730  00000+0  35587-3 0  9992", "line2": "2 38819  98.6187 343.9601 0079954 181.3554 194.4657 14.19379843635422"}}, "geometry": {"type": "Point", "coordinates": [-42.64186716433628, 72.05046183291275]}}, {"type": "Feature", "properties": {"norad_id": 38824, "name": "FENGYUN 1C DEB", "group": "fengyun-1c-debris", "lat": -6.863272638374351, "lon": 127.55185438422234, "alt_km": 916.5864915846141, "timestamp": "2025-12-18T14:52:08.315760+00:00", "meta": {"OBJECT_NAME": "FENGYUN 1C DEB", "OBJECT_ID": "1999-025EVQ", "EPOCH": "2025-11-20T14:24:21.461760", "MEAN_MOTION": 14.13875773, "ECCENTRICITY": 0.00960414, "INCLINATION": 99.2955, "RA_OF_ASC_NODE": 97.2934, "ARG_OF_PERICENTER": 263.2679, "MEAN_ANOMALY": 95.7556, "EPHEMERIS_TYPE": 0, "CLASSIFICATION_TYPE": "U", "NORAD_CAT_ID": 38824, "ELEMENT_SET_NO": 999, "REV_AT_EPOCH": 68824, "BSTAR": 0.0027703315, "MEAN_MOTION_DOT": 5.443e-05, "MEAN_MOTION_DDOT": 0}, "tle": {"line1": "1 38824U 99025EVQ 25324.60024840  .00005443  00000+0  27703-2 0  9996", "line2": "2 38824  99.2955  97.2934 0096041 263.2679  95.7556 14.13875773688246"}}, "geometry": {"type": "Point", "coordinates": [127.55185438422234, -6.863272638374351]}}, {"type": "Feature", "properties": {"norad_id": 38827, "name": "FENGYUN 1C DEB", "group": "fengyun-1c-debris", "lat": -60.184506469490664, "lon": 30.28241509787759, "alt_km": 634.6556996789204, "timestamp": "2025-12-18T14:52:08.315770+00:00", "meta": {"OBJECT_NAME": "FENGYUN 1C DEB", "OBJECT_ID": "1999-025EVT", "EPOCH": "2025-12-15T08:22:40.312416", "MEAN_MOTION": 14.32871633, "ECCENTRICITY": 0.02162225, "INCLINATION": 98.3869, "RA_OF_ASC_NODE": 12.1956, "ARG_OF_PERICENTER": 305.0884, "MEAN_ANOMALY": 53.0194, "EPHEMERIS_TYPE": 0, "CLASSIFICATION_TYPE": "U", "NORAD_CAT_ID": 38827, "ELEMENT_SET_NO": 999, "REV_AT_EPOCH": 61097, "BSTAR": 0.00067109262, "MEAN_MOTION_DOT": 2.325e-05, "MEAN_MOTION_DDOT": 0}, "tle": {"line1": "1 38827U 99025EVT 25349.34907769  .00002325  00000+0  67109-3 0  9998", "line2": "2 38827  98.3869  12.1956 0216222 305.0884  53.0194 14.32871633610973"}}, "geometry": {"type": "Point", "coordinates": [30.28241509787759, -60.184506469490664]}}, {"type": "Feature", "properties": {"norad_id": 38829, "name": "FENGYUN 1C DEB", "group": "fengyun-1c-debris", "lat": 77.18303815881224, "lon": -128.97312447575032, "alt_km": 852.1696400951514, "timestamp": "2025-12-18T14:52:08.315782+00:00", "meta": {"OBJECT_NAME": "FENGYUN 1C DEB", "OBJECT_ID": "1999-025EVV", "EPOCH": "2025-12-12T18:40:24.452256", "MEAN_MOTION": 14.09216687, "ECCENTRICITY": 0.0041168, "INCLINATION": 98.7498, "RA_OF_ASC_NODE": 2.7487, "ARG_OF_PERICENTER": 30.5355, "MEAN_ANOMALY": 329.82, "EPHEMERIS_TYPE": 0, "CLASSIFICATION_TYPE": "U", "NORAD_CAT_ID": 38829, "ELEMENT_SET_NO": 999, "REV_AT_EPOCH": 64133, "BSTAR": 0.00086306808, "MEAN_MOTION_DOT": 1.47e-05, "MEAN_MOTION_DDOT": 0}, "tle": {"line1": "1 38829U 99025EVV 25346.77806079  .00001470  00000+0  86307-3 0  9997", "line2": "2 38829  98.7498   2.7487 0041168  30.5355 329.8200 14.09216687641331"}}, "geometry": {"type": "Point", "coordinates": [-128.97312447575032, 77.18303815881224]}}]}